[Satellite]
VERSION=1.1
NAME=RBSP A
NICKNAME=RBSP A
TLE1=1 38752U 12046A   19317.45128104  .00002724  00000-0  46187-3 0  9998
TLE2=2 38752   9.7820 130.2999 6931126 236.7926  37.8969  2.74058406 70600
STATUS=0
